{
  "norad_id": 63713,
  "name": "STARLINK-33773",
  "history": [
    {
      "epoch": "2026-03-28T20:05:00.981888",
      "apogee_km": 476.1360396734708,
      "perigee_km": 474.2438361059203,
      "latitude_deg": 53.150732231496896,
      "longitude_deg": -88.36557567981072,
      "semi_major_axis_km": 6853.326937889696,
      "eccentricity": 0.00013805,
      "inclination_deg": 53.1601,
      "raan_deg": 130.4377,
      "arg_perigee_deg": 78.5592,
      "mean_anomaly_deg": 281.5564,
      "mean_motion_rev_day": 15.30208417
    }
  ]
}